[{"OBJECT_NAME":"STARLINK-30237","OBJECT_ID":"2023-105H","EPOCH":"2026-03-09T22:00:01.999584","MEAN_MOTION":15.5838538,"ECCENTRICITY":0.00169043,"INCLINATION":42.9966,"RA_OF_ASC_NODE":232.8195,"ARG_OF_PERICENTER":331.6845,"MEAN_ANOMALY":157.5777,"EPHEMERIS_TYPE":0,"CLASSIFICATION_TYPE":"U","NORAD_CAT_ID":57437,"ELEMENT_SET_NO":999,"REV_AT_EPOCH":590,"BSTAR":0.006209192,"MEAN_MOTION_DOT":0.00519869,"MEAN_MOTION_DDOT":0},{"OBJECT_NAME":"SKYKRAFT-3D","OBJECT_ID":"2023-084BZ","EPOCH":"2026-03-09T21:28:04.330848","MEAN_MOTION":15.63935842,"ECCENTRICITY":0.00046011,"INCLINATION":97.5993,"RA_OF_ASC_NODE":219.3167,"ARG_OF_PERICENTER":265.5149,"MEAN_ANOMALY":94.5584,"EPHEMERIS_TYPE":0,"CLASSIFICATION_TYPE":"U","NORAD_CAT_ID":57956,"ELEMENT_SET_NO":999,"REV_AT_EPOCH":13957,"BSTAR":0.00079114811,"MEAN_MOTION_DOT":0.00074849,"MEAN_MOTION_DDOT":0}]
